{"type": "FeatureCollection", "features": [ {"type": "Feature", "properties": {"norad_id": 30702, "name": "FENGYUN 1C DEB", "group": "fengyun-1c-debris", "lat": 69.50085009768915, "lon": -17.325576287010623, "alt_km": 907.0742760419125, "timestamp": "2025-12-13T05:42:57.837528+00:00", "meta": {"OBJECT_NAME": "FENGYUN 1C DEB", "OBJECT_ID": "1999-025ARL", "EPOCH": "2025-12-12T07:12:33.480000", "MEAN_MOTION": 14.03590732, "ECCENTRICITY": 0.00685306, "INCLINATION": 98.7697, "RA_OF_ASC_NODE": 6.1561, "ARG_OF_PERICENTER": 303.0211, "MEAN_ANOMALY": 71.8944, "EPHEMERIS_TYPE": 0, "CLASSIFICATION_TYPE": "U", "NORAD_CAT_ID": 30702, "ELEMENT_SET_NO": 999, "REV_AT_EPOCH": 96156, "BSTAR": 0.001113666, "MEAN_MOTION_DOT": 1.742e-05, "MEAN_MOTION_DDOT": 0}, "tle": {"line1": "1 30702U 99025ARL 25346.30038750  .00001742  00000+0  11137-2 0  9991", "line2": "2 30702  98.7697   6.1561 0068530 303.0211  71.8944 14.03590732961565"}}, "geometry": {"type": "Point", "coordinates": [-17.325576287010623, 69.50085009768915]}}, {"type": "Feature", "properties": {"norad_id": 30703, "name": "FENGYUN 1C DEB", "group": "fengyun-1c-debris", "lat": -19.157901845422387, "lon": 149.0758004426124, "alt_km": 833.6695472153106, "timestamp": "2025-12-13T05:42:57.837539+00:00", "meta": {"OBJECT_NAME": "FENGYUN 1C DEB", "OBJECT_ID": "1999-025ARM", "EPOCH": "2025-12-12T05:10:29.053056", "MEAN_MOTION": 14.19321542, "ECCENTRICITY": 0.01177233, "INCLINATION": 99.1424, "RA_OF_ASC_NODE": 331.228, "ARG_OF_PERICENTER": 293.5687, "MEAN_ANOMALY": 85.1635, "EPHEMERIS_TYPE": 0, "CLASSIFICATION_TYPE": "U", "NORAD_CAT_ID": 30703, "ELEMENT_SET_NO": 999, "REV_AT_EPOCH": 96533, "BSTAR": 0.0018520969, "MEAN_MOTION_DOT": 4.121e-05, "MEAN_MOTION_DDOT": 0}, "tle": {"line1": "1 30703U 99025ARM 25346.21561404  .00004121  00000+0  18521-2 0  9997", "line2": "2 30703  99.1424 331.2280 0117723 293.5687  85.1635 14.19321542965330"}}, "geometry": {"type": "Point", "coordinates": [149.0758004426124, -19.157901845422387]}}, {"type": "Feature", "properties": {"norad_id": 30704, "name": "FENGYUN 1C DEB", "group": "fengyun-1c-debris", "lat": 65.77243482877442, "lon": -173.72442110325574, "alt_km": 822.6492620474901, "timestamp": "2025-12-13T05:42:57.837549+00:00", "meta": {"OBJECT_NAME": "FENGYUN 1C DEB", "OBJECT_ID": "1999-025ARN", "EPOCH": "2025-12-12T05:29:42.080064", "MEAN_MOTION": 14.0204683, "ECCENTRICITY": 0.00817112, "INCLINATION": 98.8722, "RA_OF_ASC_NODE": 344.9831, "ARG_OF_PERICENTER": 101.2733, "MEAN_ANOMALY": 320.0425, "EPHEMERIS_TYPE": 0, "CLASSIFICATION_TYPE": "U", "NORAD_CAT_ID": 30704, "ELEMENT_SET_NO": 999, "REV_AT_EPOCH": 96104, "BSTAR": 0.0006060057, "MEAN_MOTION_DOT": 9.1e-06, "MEAN_MOTION_DDOT": 0}, "tle": {"line1": "1 30704U 99025ARN 25346.22895926  .00000910  00000+0  60601-3 0  9997", "line2": "2 30704  98.8722 344.9831 0081711 101.2733 320.0425 14.02046830961043"}}, "geometry": {"type": "Point", "coordinates": [-173.72442110325574, 65.77243482877442]}}, {"type": "Feature", "properties": {"norad_id": 30705, "name": "FENGYUN 1C DEB", "group": "fengyun-1c-debris", "lat": 48.75436142647525, "lon": -74.18554731590334, "alt_km": 1082.4894403802973, "timestamp": "2025-12-13T05:42:57.837560+00:00", "meta": {"OBJECT_NAME": "FENGYUN 1C DEB", "OBJECT_ID": "1999-025ARP", "EPOCH": "2025-12-11T13:12:25.417152", "MEAN_MOTION": 13.81310468, "ECCENTRICITY": 0.01997345, "INCLINATION": 102.18, "RA_OF_ASC_NODE": 89.3834, "ARG_OF_PERICENTER": 284.9663, "MEAN_ANOMALY": 96.4341, "EPHEMERIS_TYPE": 0, "CLASSIFICATION_TYPE": "U", "NORAD_CAT_ID": 30705, "ELEMENT_SET_NO": 999, "REV_AT_EPOCH": 93993, "BSTAR": 0.0033165869, "MEAN_MOTION_DOT": 4.031e-05, "MEAN_MOTION_DDOT": 0}, "tle": {"line1": "1 30705U 99025ARP 25345.55029418  .00004031  00000+0  33166-2 0  9991", "line2": "2 30705 102.1800  89.3834 0199734 284.9663  96.4341 13.81310468939930"}}, "geometry": {"type": "Point", "coordinates": [-74.18554731590334, 48.75436142647525]}}, {"type": "Feature", "properties": {"norad_id": 30706, "name": "FENGYUN 1C DEB", "group": "fengyun-1c-debris", "lat": 29.663202310982808, "lon": 67.07950289497578, "alt_km": 784.613648296965, "timestamp": "2025-12-13T05:42:57.837570+00:00", "meta": {"OBJECT_NAME": "FENGYUN 1C DEB", "OBJECT_ID": "1999-025ARQ", "EPOCH": "2025-12-12T05:26:56.483232", "MEAN_MOTION": 14.2642193, "ECCENTRICITY": 0.00265024, "INCLINATION": 99.0648, "RA_OF_ASC_NODE": 240.8165, "ARG_OF_PERICENTER": 129.8116, "MEAN_ANOMALY": 230.5402, "EPHEMERIS_TYPE": 0, "CLASSIFICATION_TYPE": "U", "NORAD_CAT_ID": 30706, "ELEMENT_SET_NO": 999, "REV_AT_EPOCH": 97620, "BSTAR": 0.0013052373, "MEAN_MOTION_DOT": 3.106e-05, "MEAN_MOTION_DDOT": 0}, "tle": {"line1": "1 30706U 99025ARQ 25346.22704263  .00003106  00000+0  13052-2 0  9999", "line2": "2 30706  99.0648 240.8165 0026502 129.8116 230.5402 14.26421930976205"}}, "geometry": {"type": "Point", "coordinates": [67.07950289497578, 29.663202310982808]}}, {"type": "Feature", "properties": {"norad_id": 30707, "name": "FENGYUN 1C DEB", "group": "fengyun-1c-debris", "lat": 20.65510109859092, "lon": 38.06503749332307, "alt_km": 789.174615682723, "timestamp": "2025-12-13T05:42:57.837581+00:00", "meta": {"OBJECT_NAME": "FENGYUN 1C DEB", "OBJECT_ID": "1999-025ARR", "EPOCH": "2025-12-12T02:49:27.346368", "MEAN_MOTION": 14.26679363, "ECCENTRICITY": 0.00278275, "INCLINATION": 99.4127, "RA_OF_ASC_NODE": 40.4463, "ARG_OF_PERICENTER": 71.8098, "MEAN_ANOMALY": 317.7527, "EPHEMERIS_TYPE": 0, "CLASSIFICATION_TYPE": "U", "NORAD_CAT_ID": 30707, "ELEMENT_SET_NO": 999, "REV_AT_EPOCH": 96794, "BSTAR": 0.0022821178, "MEAN_MOTION_DOT": 5.494e-05, "MEAN_MOTION_DDOT": 0}, "tle": {"line1": "1 30707U 99025ARR 25346.11767762  .00005494  00000+0  22821-2 0  9997", "line2": "2 30707  99.4127  40.4463 0027827  71.8098 317.7527 14.26679363967945"}}, "geometry": {"type": "Point", "coordinates": [38.06503749332307, 20.65510109859092]}}, {"type": "Feature", "properties": {"norad_id": 30708, "name": "FENGYUN 1C DEB", "group": "fengyun-1c-debris", "lat": 57.353489143891984, "lon": -12.952016983268203, "alt_km": 850.4565664084075, "timestamp": "2025-12-13T05:42:57.837592+00:00", "meta": {"OBJECT_NAME": "FENGYUN 1C DEB", "OBJECT_ID": "1999-025ARS", "EPOCH": "2025-12-12T00:40:15.881376", "MEAN_MOTION": 14.12178229, "ECCENTRICITY": 0.0008025, "INCLINATION": 98.6905, "RA_OF_ASC_NODE": 359.6866, "ARG_OF_PERICENTER": 196.6553, "MEAN_ANOMALY": 192.811, "EPHEMERIS_TYPE": 0, "CLASSIFICATION_TYPE": "U", "NORAD_CAT_ID": 30708, "ELEMENT_SET_NO": 999, "REV_AT_EPOCH": 96826, "BSTAR": 0.0002221, "MEAN_MOTION_DOT": 3.65e-06, "MEAN_MOTION_DDOT": 0}, "tle": {"line1": "1 30708U 99025ARS 25346.02796159  .00000365  00000+0  22210-3 0  9995", "line2": "2 30708  98.6905 359.6866 0008025 196.6553 192.8110 14.12178229968260"}}, "geometry": {"type": "Point", "coordinates": [-12.952016983268203, 57.353489143891984]}}, {"type": "Feature", "properties": {"norad_id": 30709, "name": "FENGYUN 1C DEB", "group": "fengyun-1c-debris", "lat": 79.19611488070095, "lon": -157.2143512918815, "alt_km": 885.5617359507314, "timestamp": "2025-12-13T05:42:57.837602+00:00", "meta": {"OBJECT_NAME": "FENGYUN 1C DEB", "OBJECT_ID": "1999-025ART", "EPOCH": "2025-12-12T03:50:59.017920", "MEAN_MOTION": 14.1747053, "ECCENTRICITY": 0.00825714, "INCLINATION": 99.145, "RA_OF_ASC_NODE": 324.1002, "ARG_OF_PERICENTER": 271.8005, "MEAN_ANOMALY": 87.3713, "EPHEMERIS_TYPE": 0, "CLASSIFICATION_TYPE": "U", "NORAD_CAT_ID": 30709, "ELEMENT_SET_NO": 999, "REV_AT_EPOCH": 95988, "BSTAR": 0.0042709638, "MEAN_MOTION_DOT": 8.917e-05, "MEAN_MOTION_DDOT": 0}, "tle": {"line1": "1 30709U 99025ART 25346.16040530  .00008917  00000+0  42710-2 0  9993", "line2": "2 30709  99.1450 324.1002 0082571 271.8005  87.3713 14.17470530959887"}}, "geometry": {"type": "Point", "coordinates": [-157.2143512918815, 79.19611488070095]}}, {"type": "Feature", "properties": {"norad_id": 30710, "name": "FENGYUN 1C DEB", "group": "fengyun-1c-debris", "lat": -68.22340606878488, "lon": -88.85871311762017, "alt_km": 1067.1942956786888, "timestamp": "2025-12-13T05:42:57.837613+00:00", "meta": {"OBJECT_NAME": "FENGYUN 1C DEB", "OBJECT_ID": "1999-025ARU", "EPOCH": "2025-12-11T13:17:01.154976", "MEAN_MOTION": 13.94132538, "ECCENTRICITY": 0.02233197, "INCLINATION": 102.7457, "RA_OF_ASC_NODE": 234.3141, "ARG_OF_PERICENTER": 86.0724, "MEAN_ANOMALY": 31.5992, "EPHEMERIS_TYPE": 0, "CLASSIFICATION_TYPE": "U", "NORAD_CAT_ID": 30710, "ELEMENT_SET_NO": 999, "REV_AT_EPOCH": 94772, "BSTAR": 0.0031813803, "MEAN_MOTION_DOT": 5.119e-05, "MEAN_MOTION_DDOT": 0}, "tle": {"line1": "1 30710U 99025ARU 25345.55348559  .00005119  00000+0  31814-2 0  9993", "line2": "2 30710 102.7457 234.3141 0223319  86.0724  31.5992 13.94132538947721"}}, "geometry": {"type": "Point", "coordinates": [-88.85871311762017, -68.22340606878488]}}, {"type": "Feature", "properties": {"norad_id": 30714, "name": "FENGYUN 1C DEB", "group": "fengyun-1c-debris", "lat": -66.99232911875467, "lon": 57.23958621787736, "alt_km": 841.9658084462553, "timestamp": "2025-12-13T05:42:57.837624+00:00", "meta": {"OBJECT_NAME": "FENGYUN 1C DEB", "OBJECT_ID": "1999-025ARY", "EPOCH": "2025-12-12T02:47:28.165344", "MEAN_MOTION": 14.03290618, "ECCENTRICITY": 0.0066639, "INCLINATION": 98.8373, "RA_OF_ASC_NODE": 34.6581, "ARG_OF_PERICENTER": 284.4486, "MEAN_ANOMALY": 102.3971, "EPHEMERIS_TYPE": 0, "CLASSIFICATION_TYPE": "U", "NORAD_CAT_ID": 30714, "ELEMENT_SET_NO": 999, "REV_AT_EPOCH": 95984, "BSTAR": 0.00076626603, "MEAN_MOTION_DOT": 1.176e-05, "MEAN_MOTION_DDOT": 0}, "tle": {"line1": "1 30714U 99025ARY 25346.11629821  .00001176  00000+0  76627-3 0  9995", "line2": "2 30714  98.8373  34.6581 0066639 284.4486 102.3971 14.03290618959840"}}, "geometry": {"type": "Point", "coordinates": [57.23958621787736, -66.99232911875467]}}]}